[{"OBJECT_NAME":"LEMUR-2-THEFALCONER","OBJECT_ID":"2025-052BG","EPOCH":"2026-03-09T22:50:08.545056","MEAN_MOTION":14.96514677,"ECCENTRICITY":0.00021143,"INCLINATION":97.6968,"RA_OF_ASC_NODE":322.9473,"ARG_OF_PERICENTER":10.9074,"MEAN_ANOMALY":349.2193,"EPHEMERIS_TYPE":0,"CLASSIFICATION_TYPE":"U","NORAD_CAT_ID":63264,"ELEMENT_SET_NO":999,"REV_AT_EPOCH":5384,"BSTAR":0.00055972494,"MEAN_MOTION_DOT":6.306e-5,"MEAN_MOTION_DDOT":0},{"OBJECT_NAME":"PEGASUS DEB","OBJECT_ID":"1994-029AEU","EPOCH":"2026-02-23T03:26:51.278784","MEAN_MOTION":14.47195941,"ECCENTRICITY":0.02323685,"INCLINATION":81.7405,"RA_OF_ASC_NODE":6.5005,"ARG_OF_PERICENTER":184.7349,"MEAN_ANOMALY":175.1651,"EPHEMERIS_TYPE":0,"CLASSIFICATION_TYPE":"U","NORAD_CAT_ID":39309,"ELEMENT_SET_NO":999,"REV_AT_EPOCH":72117,"BSTAR":0.00045281266,"MEAN_MOTION_DOT":2.342e-5,"MEAN_MOTION_DDOT":0}]
